satname,norad_id,inclination_deg,eccentricity,mean_motion_rev_per_day,perigee_km,apogee_km,l1,l2
STARLINK-1478,45755,53.055,0.0001976,15.06470071,545.628402299034,548.3652151802471,1 45755U 20038AB  25327.44390913  .00028214  00000+0  19018-2 0  9998,2 45755  53.0550 333.5721 0001976  88.9974 271.1242 15.06470071300450
STARLINK-1484,45756,53.0142,0.0003698,15.65820959,368.38293895492006,373.3745109851079,1 45756U 20038AC  25327.15150594  .00097898  00000+0  94076-3 0  9998,2 45756  53.0142 231.2678 0003698 102.9955 257.1473 15.65820959301867
STARLINK-1493,45759,53.0568,0.0001315,15.06404452,546.2872316919984,548.1085947741776,1 45759U 20038AF  25327.43287414 -.00004499  00000+0 -28332-3 0  9993,2 45759  53.0568 333.6191 0001315 119.3367 240.7753 15.06404452300456
STARLINK-1494,45760,53.0543,0.0004998,15.53469601,403.21394813115785,409.9959761965374,1 45760U 20038AG  25327.26215243  .00037897  00000+0  59143-3 0  9997,2 45760  53.0543 312.0675 0004998  72.5062 287.6494 15.53469601300755
STARLINK-1502,45764,53.0557,0.0001585,15.06391326,546.1404706664507,548.3358145866623,1 45764U 20038AL  25327.39969191 -.00003136  00000+0 -19177-3 0  9997,2 45764  53.0557 333.7719 0001585  89.6253 270.4918 15.06391326300468
STARLINK-1470,45772,53.048,0.0005463,15.19439216,503.7726608814237,511.2959453472067,1 45772U 20038AU  25327.20450355  .00052025  00000+0  24215-2 0  9990,2 45772  53.0480 305.1829 0005463   4.5696 355.5348 15.19439216300842
STARLINK-1482,45773,53.0553,0.0001564,15.06390795,546.1566411543354,548.3228990080161,1 45773U 20038AV  25327.36468529  .00000071  00000+0  23659-4 0  9997,2 45773  53.0553 313.9287 0001564  93.9323 266.1845 15.06390795300737
STARLINK-1496,45780,53.0563,0.0001561,15.06388733,546.1650375854342,548.3271421860973,1 45780U 20038BC  25327.39783164 -.00006326  00000+0 -40626-3 0  9996,2 45780  53.0563 313.7814 0001561  77.0952 283.0211 15.06388733300721
STARLINK-1497,45781,53.0379,0.0006809,15.61261566,379.40754225017645,388.6162366078015,1 45781U 20038BD  25327.91668980  .00150066  00000+0  17093-2 0  9993,2 45781  53.0379 248.2670 0006809  57.1796 287.0289 15.61261566  5922
STARLINK-1510,45784,53.0268,0.0004798,15.80576319,325.59179567119463,332.02778180967016,1 45784U 20038BG  25327.91668980  .00171436  00000+0  86612-3 0  9994,2 45784  53.0268 221.4552 0004798 132.9478 119.6192 15.80576319  5972
STARLINK-1513,45786,53.0556,0.0001411,15.06391543,546.2603072077263,548.2146478852892,1 45786U 20038BJ  25327.29465355  .00000097  00000+0  25404-4 0  9995,2 45786  53.0556 314.2419 0001411  91.3660 268.7491 15.06391543300728
STARLINK-1522,46027,53.0545,0.0001255,15.06380473,546.4022672724113,548.1405447823236,1 46027U 20055A   25327.14260670  .00000172  00000+0  30419-4 0  9996,2 46027  53.0545 244.9260 0001255  63.0386 297.0732 15.06380473292829
STARLINK-1523,46028,53.0546,0.0001329,15.06388567,546.3262151779836,548.1669821385076,1 46028U 20055B   25327.15734378  .00000679  00000+0  64495-4 0  9992,2 46028  53.0546 244.8624 0001329 117.8703 242.2420 15.06388567292847
STARLINK-1526,46029,53.0541,0.0001657,15.06384393,546.1118533763583,548.4069297405213,1 46029U 20055C   25327.14997307 -.00002914  00000+0 -17688-3 0  9992,2 46029  53.0541 244.8901 0001657 112.2511 247.8654 15.06384393292833
STARLINK-1555,46032,53.0529,0.0001553,15.06394886,546.1517225908929,548.3027407212448,1 46032U 20055F   25327.20157442  .00000090  00000+0  24969-4 0  9993,2 46032  53.0529 244.6683 0001553 110.7691 249.3465 15.06394886292841
STARLINK-1556,46033,53.0537,0.0001298,15.06373409,546.3941359009586,548.1919775436845,1 46033U 20055G   25327.44854228  .00008758  00000+0  60653-3 0  9994,2 46033  53.0537 243.5537 0001298  83.2502 276.8635 15.06373409292851
STARLINK-1557,46034,53.0549,0.0001659,15.06420963,545.9984054405131,548.2962147746084,1 46034U 20055H   25327.05411894  .00002484  00000+0  18552-3 0  9991,2 46034  53.0549 245.3234 0001659  82.8277 277.2901 15.06420963292796
STARLINK-1558,46035,53.0549,0.0001493,15.06388387,546.2131904857079,548.2811101929983,1 46035U 20055J   25327.19420196  .00001362  00000+0  11036-3 0  9996,2 46035  53.0549 244.6992 0001493 118.8106 241.3033 15.06388387292844
STARLINK-1560,46036,53.0537,0.0003199,15.06388996,545.0298540261201,549.4607136113073,1 46036U 20055K   25327.44486495  .00012291  00000+0  84279-3 0  9991,2 46036  53.0537 243.5719 0003199  70.6383 289.4951 15.06388996292886
STARLINK-1567,46038,53.0542,0.0001561,15.06378255,546.1971467197754,548.3592613464753,1 46038U 20055M   25327.25686737  .00000100  00000+0  25624-4 0  9999,2 46038  53.0542 244.4141 0001561 101.2140 258.9024 15.06378255292841
STARLINK-1569,46039,53.0563,0.0001325,15.06396742,546.3039332500539,548.1391532640182,1 46039U 20055N   25327.19789783  .00003580  00000+0  25912-3 0  9992,2 46039  53.0563 244.6858 0001325  86.8956 273.2184 15.06396742292830
STARLINK-1582,46043,53.0547,0.0001718,15.06395332,546.0360873827467,548.4156420630652,1 46043U 20055S   25327.20526973  .00001966  00000+0  15085-3 0  9995,2 46043  53.0547 244.6465 0001718 126.7497 233.3650 15.06395332292830
STARLINK-1591,46045,53.054,0.0001312,15.06379319,546.3663289029173,548.1835569967479,1 46045U 20055U   25327.76185338  .00007066  00000+0  49304-3 0  9992,2 46045  53.0540 242.1470 0001312  91.7695 268.3444 15.06379319292909
STARLINK-1524,46047,53.0531,0.0001606,15.06375616,546.1740694136815,548.3985153751983,1 46047U 20055W   25327.25041098  .00013057  00000+0  89439-3 0  9992,2 46047  53.0531 234.4437 0001606 118.6144 241.5007 15.06375616292984
STARLINK-1527,46048,53.0543,0.0001344,15.06389398,546.3132805185323,548.1748229452378,1 46048U 20055X   25327.18038218  .00004594  00000+0  32718-3 0  9999,2 46048  53.0543 234.7576 0001344  68.7354 291.3778 15.06389398292959
STARLINK-1540,46051,53.0536,0.0001789,15.0637759,546.0412850675011,548.5191993567651,1 46051U 20055AA  25327.21355768  .00015634  00000+0  10668-2 0  9995,2 46051  53.0536 234.6084 0001789  71.8763 288.2421 15.06377590292995
STARLINK-1541,46052,53.0541,0.0001559,15.06394042,546.1501537233635,548.3094830973441,1 46052U 20055AB  25327.06611603 -.00000454  00000+0 -11578-4 0  9991,2 46052  53.0541 235.2661 0001559 138.9606 221.1501 15.06394042292936
STARLINK-1543,46053,53.0537,0.0001327,15.06386557,546.3337598824946,548.1717583245609,1 46053U 20055AC  25327.13614958 -.00002199  00000+0 -12884-3 0  9994,2 46053  53.0537 234.9594 0001327 145.5609 214.5466 15.06386557292975
